[
    {
        "Altitude(m)": 622205.8296270237,
        "Argument of Periapsis(deg)": 0.0,
        "Eccentricity": 0.0,
        "Inclination(deg)": 60.0,
        "Latitude(deg)": -52.16233091158963,
        "Longitude(deg)": 82.70044302917661,
        "Mean Anomaly(deg)": -114.5455,
        "RAAN(deg)": 315.0,
        "Satellite Name": "Test1 1401",
        "Satellite Number": 1401,
        "Semi-Major Axis(m)": 6980739.136638005,
        "Time(s)": 0
    },
    {
        "Altitude(m)": 622344.7361080882,
        "Argument of Periapsis(deg)": 0.00010418945913296404,
        "Eccentricity": 0.0,
        "Inclination(deg)": 60.0,
        "Latitude(deg)": -52.51991000667398,
        "Longitude(deg)": 83.48165417134891,
        "Mean Anomaly(deg)": -113.92539385453817,
        "RAAN(deg)": 314.99957995086027,
        "Satellite Name": "Test1 1401",
        "Satellite Number": 1401,
        "Semi-Major Axis(m)": 6980739.136638005,
        "Time(s)": 10
    }
]